KUIPER-00100            
1 65139U 25171H   25243.89244249  .00048147  00000+0  13672-2 0  9992
2 65139  51.8768 306.4665 0005150 212.0047 148.0627 15.35706361  4377
KUIPER-00102            
1 65140U 25171J   25243.89647212  .00036734  00000+0  10580-2 0  9995
2 65140  51.8770 306.4921 0004873 222.1497 137.9114 15.35386636  4376
KUIPER-00103            
1 65141U 25171K   25243.63385026  .00037735  00000+0  10792-2 0  9997
2 65141  51.8768 307.7333 0004049 212.1693 147.9046 15.35599571  4332
KUIPER-00104            
1 65142U 25171L   25243.89319753  .00045561  00000+0  12986-2 0  9993
2 65142  51.8784 306.4792 0004622 218.0240 142.0421 15.35617477  4379
KUIPER-00105            
1 65143U 25171M   25243.88696437  .00049080  00000+0  13728-2 0  9995
2 65143  51.8773 306.4356 0005533 195.6794 164.4022 15.36167473  4383
KUIPER-00106            
1 65144U 25171N   25243.89134172  .00053400  00000+0  15077-2 0  9990
2 65144  51.8772 306.4600 0004893 204.9974 155.0776 15.35840961  4388
KUIPER-00107            
1 65145U 25171P   25243.89199046  .00050682  00000+0  14365-2 0  9990
2 65145  51.8781 306.4714 0005115 208.4098 151.6610 15.35742629  4380
KUIPER-00108            
1 65146U 25171Q   25243.89679590  .00082563  00000+0  23565-2 0  9993
2 65146  51.8787 306.5032 0005362 227.9921 132.0609 15.35299815  4381
KUIPER-00109            
1 65147U 25171R   25243.88965716  .00054048  00000+0  15241-2 0  9990
2 65147  51.8773 306.4508 0005207 204.9832 155.0903 15.35872519  4377
KUIPER-00110            
1 65148U 25171S   25243.89082323  .00062737  00000+0  17642-2 0  9997
2 65148  51.8778 306.4636 0005138 206.0587 154.0142 15.35893835  4376
KUIPER-00111            
1 65149U 25171T   25243.89438546  .00038292  00000+0  10948-2 0  9991
2 65149  51.8786 306.4867 0004358 220.3701 139.6962 15.35599650  4379
KUIPER-00112            
1 65150U 25171U   25243.89790453  .00056770  00000+0  16293-2 0  9991
2 65150  51.8784 306.5085 0005085 233.4437 126.6082 15.35299483  4371
KUIPER-00114            
1 65151U 25171V   25243.89641741  .00045483  00000+0  13059-2 0  9993
2 65151  51.8779 306.4964 0004554 222.1525 137.9111 15.35388008  4374
KUIPER-00115            
1 65152U 25171W   25243.89087729  .00055752  00000+0  15751-2 0  9995
2 65152  51.8774 306.4574 0004911 200.1810 159.8983 15.35801232  4376
KUIPER-00116            
1 65153U 25171X   25243.89443758  .00042538  00000+0  12190-2 0  9996
2 65153  51.8785 306.4870 0004420 220.4541 139.6117 15.35479765  4376
KUIPER-00118            
1 65154U 25171Y   25243.89680812  .00039227  00000+0  11291-2 0  9993
2 65154  51.8783 306.5001 0004373 226.3624 133.7000 15.35377575  4378
KUIPER-00119            
1 65155U 25171Z   25243.88825345  .00067330  00000+0  18815-2 0  9990
2 65155  51.8773 306.4423 0005228 199.7605 160.3180 15.36058312  4378
METOP-SGA1              
1 65159U 25172A   25243.93052088  .00000088  00000+0  57958-4 0  9997
2 65159  98.7058 303.1299 0006668 306.3005  53.7557 14.23706738  2684
HULIANWANG DIGUI 8A     
1 65164U 25174A   25241.88849158  .00000132  00000+0  22112-3 0  9992
2 65164  86.5041 350.4344 0002359 237.2229 122.8686 13.38100051  2228
HULIANWANG DIGUI 8B     
1 65165U 25174B   25241.89110237  .00000033  00000+0  33776-4 0  9992
2 65165  86.5004 350.4394 0002573 228.8462 131.2458 13.37797990  2220
HULIANWANG DIGUI 8C     
1 65166U 25174C   25243.76476228  .00000166  00000+0  29573-3 0  9992
2 65166  86.5047 349.7995 0000997 142.5613 217.5597 13.36064221  2476
HULIANWANG DIGUI 8D     
1 65167U 25174D   25243.31884387  .00000124  00000+0  21392-3 0  9998
2 65167  86.5039 349.9512 0001930 218.5434 141.5569 13.35935419  2412
HULIANWANG DIGUI 8E     
1 65168U 25174E   25241.89912908  .00000032  00000+0  33660-4 0  9991
2 65168  86.4997 350.4321 0003344 236.7016 123.3805 13.36516532  2221
HULIANWANG DIGUI 8F     
1 65169U 25174F   25242.79772720  .00000056  00000+0  79311-4 0  9997
2 65169  86.4992 350.1117 0001557 249.5147 110.5826 13.35856601  2345
HULIANWANG DIGUI 8G     
1 65170U 25174G   25242.80384414  .00000066  00000+0  10072-3 0  9999
2 65170  86.4987 350.1284 0003331 241.5403 118.5402 13.34842890  2347
HULIANWANG DIGUI 8H     
1 65171U 25174H   25243.70999288 -.00000014  00000+0 -58847-4 0  9999
2 65171  86.4902 349.8265 0001625 199.4315 160.6762 13.33191264  2467
HULIANWANG DIGUI 8J     
1 65172U 25174J   25242.43212003  .00000130  00000+0  22925-3 0  9996
2 65172  86.5170 350.2758 0005564 262.6081  97.4427 13.34791126  2298
HULIANWANG DIGUI 8K     
1 65173U 25174K   25242.58817643 -.00001490  00000+0 -30462-2 0  9990
2 65173  86.4998 350.2103 0004170 256.6955 103.3719 13.33764848  2285
STARLINK-34956          
1 65174U 25175A   25243.91668981 -.01847805  00000+0 -34796-1 0  9991
2 65174  97.6030 114.6131 0001911  96.9838 188.9971 15.51946307  3997
STARLINK-34949          
1 65175U 25175B   25243.91668981 -.02181475  00000+0 -40985-1 0  9994
2 65175  97.6054 114.6107 0001836 100.2735 187.6261 15.52023476  3899
STARLINK-34707          
1 65176U 25175C   25243.91668981 -.01850336  00000+0 -34848-1 0  9994
2 65176  97.6030 114.6145 0002088 103.2971 186.5281 15.51945898  4050
STARLINK-34967          
1 65177U 25175D   25243.91668981 -.01843012  00000+0 -34688-1 0  9990
2 65177  97.6028 114.6166 0002086  94.2975 197.4453 15.51949056  4054
STARLINK-34929          
1 65178U 25175E   25243.91668981 -.01845532  00000+0 -34740-1 0  9999
2 65178  97.6032 114.6177 0002006  96.2750 197.3862 15.51950920  4052
STARLINK-34932          
1 65179U 25175F   25243.91668981 -.01840590  00000+0 -34641-1 0  9999
2 65179  97.6028 114.6192 0001999  95.4614 202.0451 15.51946553  4050
STARLINK-34862          
1 65180U 25175G   25243.91668981 -.01784944  00000+0 -33554-1 0  9993
2 65180  97.6033 114.6209 0002275  93.7171 205.7855 15.51869077  4057
STARLINK-34942          
1 65181U 25175H   25243.91668981 -.01838691  00000+0 -34599-1 0  9993
2 65181  97.6033 114.6183 0001918  92.0332 203.5499 15.51948773  3996
STARLINK-34944          
1 65182U 25175J   25243.91668981 -.01840581  00000+0 -34642-1 0  9994
2 65182  97.6034 114.6213 0001974  94.9598 206.3878 15.51945498  4050
STARLINK-34939          
1 65183U 25175K   25243.91668981 -.01846378  00000+0 -34760-1 0  9996
2 65183  97.6035 114.6219 0001990  99.0966 204.1700 15.51950092  3955
STARLINK-34947          
1 65184U 25175L   25243.91668981 -.01836338  00000+0 -34555-1 0  9994
2 65184  97.6034 114.6230 0001978  95.5082 209.6825 15.51943407  4056
STARLINK-34945          
1 65185U 25175M   25243.91668981 -.02185813  00000+0 -41086-1 0  9998
2 65185  97.6052 114.6199 0001337  95.1016 212.0036 15.52022517  4056
STARLINK-34965          
1 65186U 25175N   25243.91668981 -.01835144  00000+0 -34540-1 0  9994
2 65186  97.6029 114.6241 0001970  96.8603 214.0953 15.51934774  4058
STARLINK-34915          
1 65187U 25175P   25243.91668981 -.02188426  00000+0 -41134-1 0  9997
2 65187  97.6052 114.6203 0001403  96.2187 212.8025 15.52026982  4055
STARLINK-34972          
1 65188U 25175Q   25243.91668981 -.02178908  00000+0 -40933-1 0  9998
2 65188  97.6058 114.6221 0001517  96.5251 216.3387 15.52024502  3687
STARLINK-34866          
1 65189U 25175R   25243.91668981 -.02185920  00000+0 -41080-1 0  9995
2 65189  97.6052 114.6231 0001490  96.2536 218.5306 15.52026374  4052
STARLINK-34917          
1 65190U 25175S   25243.91668981 -.01831936  00000+0 -34457-1 0  9991
2 65190  97.6032 114.6272 0002051 103.1320 213.5784 15.51946266  3942
STARLINK-34948          
1 65191U 25175T   25243.91668981 -.02180494  00000+0 -40971-1 0  9997
2 65191  97.6052 114.6242 0001601  94.2570 224.3727 15.52021085  4053
STARLINK-34955          
1 65192U 25175U   25243.91668981 -.01824573  00000+0 -34308-1 0  9997
2 65192  97.6035 114.6283 0002070  99.5859 220.9713 15.51940027  3993
STARLINK-34950          
1 65193U 25175V   25243.91668981 -.01831913  00000+0 -34459-1 0  9991
2 65193  97.6032 114.6296 0001965 101.4515 221.0229 15.51945432  3998
STARLINK-34926          
1 65194U 25175W   25243.91668981 -.01824652  00000+0 -34314-1 0  9994
2 65194  97.6034 114.6331 0001922 103.3993 226.7583 15.51938598  3995
STARLINK-34928          
1 65195U 25175X   25243.91668981 -.02184633  00000+0 -41047-1 0  9995
2 65195  97.6052 114.6286 0001629  98.0070 230.2174 15.52028764  4055
STARLINK-34927          
1 65196U 25175Y   25243.91668981 -.02187674  00000+0 -41110-1 0  9995
2 65196  97.6053 114.6267 0001620  92.1174 232.2653 15.52029653  4059
STARLINK-34952          
1 65197U 25175Z   25243.91668981 -.02184823  00000+0 -41054-1 0  9996
2 65197  97.6052 114.6275 0001605  97.7371 228.5693 15.52026660  4058
STARLINK-34981          
1 65198U 25176A   25243.91668981 -.01478006  00000+0 -14768-1 0  9998
2 65198  53.1598 319.6119 0000962  79.8208 123.3870 15.67718250  4003
STARLINK-34821          
1 65199U 25176B   25243.91668981 -.01518645  00000+0 -15598-1 0  9995
2 65199  53.1597 319.8089 0001213  58.6943  48.5727 15.67123013  3940
STARLINK-34865          
1 65200U 25176C   25243.91668981 -.01519934  00000+0 -15612-1 0  9997
2 65200  53.1593 319.8129 0001045  59.3418  46.0071 15.67124547  4008
STARLINK-34843          
1 65201U 25176D   25243.91668981 -.01520289  00000+0 -15616-1 0  9997
2 65201  53.1596 319.8049 0001080  61.8497  47.3331 15.67124582  4009
STARLINK-34905          
1 65202U 25176E   25243.91668981 -.01517134  00000+0 -15581-1 0  9994
2 65202  53.1596 319.8008 0001227  59.7771  51.3246 15.67121481  4004
STARLINK-34914          
1 65203U 25176F   25243.91668981 -.01518328  00000+0 -15595-1 0  9996
2 65203  53.1597 319.7970 0001174  59.3626  53.6560 15.67122257  4005
STARLINK-34787          
1 65204U 25176G   25243.91668981 -.01519976  00000+0 -15614-1 0  9999
2 65204  53.1595 319.7925 0001053  61.3712  53.5641 15.67123258  4000
